[{"OBJECT_NAME":"OBJECT L","OBJECT_ID":"2023-085L","EPOCH":"2026-03-09T23:02:21.999840","MEAN_MOTION":15.29079976,"ECCENTRICITY":0.0005428,"INCLINATION":97.486,"RA_OF_ASC_NODE":178.8598,"ARG_OF_PERICENTER":50.8528,"MEAN_ANOMALY":309.3193,"EPHEMERIS_TYPE":0,"CLASSIFICATION_TYPE":"U","NORAD_CAT_ID":57014,"ELEMENT_SET_NO":999,"REV_AT_EPOCH":15144,"BSTAR":0.00063462603,"MEAN_MOTION_DOT":0.00017871,"MEAN_MOTION_DDOT":0},{"OBJECT_NAME":"STARLINK-35806","OBJECT_ID":"2025-254R","EPOCH":"2026-03-09T16:57:25.622784","MEAN_MOTION":15.30238893,"ECCENTRICITY":0.00066235,"INCLINATION":53.1605,"RA_OF_ASC_NODE":232.7024,"ARG_OF_PERICENTER":176.9947,"MEAN_ANOMALY":183.1095,"EPHEMERIS_TYPE":0,"CLASSIFICATION_TYPE":"U","NORAD_CAT_ID":66363,"ELEMENT_SET_NO":999,"REV_AT_EPOCH":1897,"BSTAR":0.0010008103,"MEAN_MOTION_DOT":0.0002945,"MEAN_MOTION_DDOT":0}]
